[{"OBJECT_NAME":"SAUDISAT 1C (SO-50)","OBJECT_ID":"2002-058C","EPOCH":"2026-04-25T19:49:04.603008","MEAN_MOTION":14.82928015,"ECCENTRICITY":0.0075587,"INCLINATION":64.5516,"RA_OF_ASC_NODE":290.9753,"ARG_OF_PERICENTER":271.9918,"MEAN_ANOMALY":87.2533,"EPHEMERIS_TYPE":0,"CLASSIFICATION_TYPE":"U","NORAD_CAT_ID":27607,"ELEMENT_SET_NO":999,"REV_AT_EPOCH":25669,"BSTAR":0.00015231,"MEAN_MOTION_DOT":1.145e-5,"MEAN_MOTION_DDOT":0},{"OBJECT_NAME":"SAUDISAT 2","OBJECT_ID":"2004-025F","EPOCH":"2026-04-25T18:08:29.620896","MEAN_MOTION":14.56650112,"ECCENTRICITY":0.0025957,"INCLINATION":98.5511,"RA_OF_ASC_NODE":114.3855,"ARG_OF_PERICENTER":97.4981,"MEAN_ANOMALY":262.9167,"EPHEMERIS_TYPE":0,"CLASSIFICATION_TYPE":"U","NORAD_CAT_ID":28371,"ELEMENT_SET_NO":999,"REV_AT_EPOCH":15811,"BSTAR":6.71e-5,"MEAN_MOTION_DOT":2.51e-6,"MEAN_MOTION_DDOT":0},{"OBJECT_NAME":"SAUDISAT 3","OBJECT_ID":"2007-012B","EPOCH":"2026-04-25T08:27:33.592896","MEAN_MOTION":14.71391578,"ECCENTRICITY":0.0015519,"INCLINATION":98.1418,"RA_OF_ASC_NODE":65.7325,"ARG_OF_PERICENTER":39.7088,"MEAN_ANOMALY":320.5252,"EPHEMERIS_TYPE":0,"CLASSIFICATION_TYPE":"U","NORAD_CAT_ID":31118,"ELEMENT_SET_NO":999,"REV_AT_EPOCH":1997,"BSTAR":5.6746e-5,"MEAN_MOTION_DOT":3.01e-6,"MEAN_MOTION_DDOT":0},{"OBJECT_NAME":"PISAT","OBJECT_ID":"2016-059B","EPOCH":"2026-04-25T13:22:21.417312","MEAN_MOTION":14.68884162,"ECCENTRICITY":0.0029464,"INCLINATION":97.819,"RA_OF_ASC_NODE":118.2753,"ARG_OF_PERICENTER":16.7333,"MEAN_ANOMALY":343.4839,"EPHEMERIS_TYPE":0,"CLASSIFICATION_TYPE":"U","NORAD_CAT_ID":41784,"ELEMENT_SET_NO":999,"REV_AT_EPOCH":51201,"BSTAR":0.0001642,"MEAN_MOTION_DOT":9.19e-6,"MEAN_MOTION_DDOT":0},{"OBJECT_NAME":"FLYING LAPTOP","OBJECT_ID":"2017-042G","EPOCH":"2026-04-25T20:28:24.582720","MEAN_MOTION":15.00808344,"ECCENTRICITY":0.0018205,"INCLINATION":97.4455,"RA_OF_ASC_NODE":273.4871,"ARG_OF_PERICENTER":304.0734,"MEAN_ANOMALY":55.8762,"EPHEMERIS_TYPE":0,"CLASSIFICATION_TYPE":"U","NORAD_CAT_ID":42831,"ELEMENT_SET_NO":999,"REV_AT_EPOCH":47860,"BSTAR":0.00022978,"MEAN_MOTION_DOT":2.87e-5,"MEAN_MOTION_DDOT":0},{"OBJECT_NAME":"SALSAT","OBJECT_ID":"2020-068K","EPOCH":"2026-04-25T17:43:34.869792","MEAN_MOTION":15.29000493,"ECCENTRICITY":0.001152,"INCLINATION":97.8866,"RA_OF_ASC_NODE":115.6436,"ARG_OF_PERICENTER":121.8273,"MEAN_ANOMALY":238.4089,"EPHEMERIS_TYPE":0,"CLASSIFICATION_TYPE":"U","NORAD_CAT_ID":46495,"ELEMENT_SET_NO":999,"REV_AT_EPOCH":30734,"BSTAR":0.00030336,"MEAN_MOTION_DOT":8.478e-5,"MEAN_MOTION_DDOT":0}]
